CCSDS_OMM_VERS = 2.0
CREATION_DATE  = 
ORIGINATOR     = 

OBJECT_NAME    = COSMOS 2228
OBJECT_ID      = 1992-094A
CENTER_NAME    = EARTH
REF_FRAME      = TEME
TIME_SYSTEM    = UTC
MEAN_ELEMENT_THEORY = SGP/SGP4

EPOCH          = 2025-11-21T19:56:19.557888
MEAN_MOTION    = 14.96590327
ECCENTRICITY   = .0016654
INCLINATION    = 82.5174
RA_OF_ASC_NODE = 340.5410
ARG_OF_PERICENTER = 308.5264
MEAN_ANOMALY   = 51.4465

EPHEMERIS_TYPE = 0
CLASSIFICATION_TYPE = U
NORAD_CAT_ID   = 22286
ELEMENT_SET_NO = 999
REV_AT_EPOCH   = 75992
BSTAR          = .17898E-3
MEAN_MOTION_DOT = .2068E-4
MEAN_MOTION_DDOT = 0

CCSDS_OMM_VERS = 2.0
CREATION_DATE  = 
ORIGINATOR     = 

OBJECT_NAME    = SL-16 R/B
OBJECT_ID      = 1993-016B
CENTER_NAME    = EARTH
REF_FRAME      = TEME
TIME_SYSTEM    = UTC
MEAN_ELEMENT_THEORY = SGP/SGP4

EPOCH          = 2025-11-21T18:49:35.084640
MEAN_MOTION    = 14.15287102
ECCENTRICITY   = .0008542
INCLINATION    = 71.0080
RA_OF_ASC_NODE = 81.8128
ARG_OF_PERICENTER = 136.6305
MEAN_ANOMALY   = 223.5491

EPHEMERIS_TYPE = 0
CLASSIFICATION_TYPE = U
NORAD_CAT_ID   = 22566
ELEMENT_SET_NO = 999
REV_AT_EPOCH   = 68690
BSTAR          = .14849E-3
MEAN_MOTION_DOT = .242E-5
MEAN_MOTION_DDOT = 0

CCSDS_OMM_VERS = 2.0
CREATION_DATE  = 
ORIGINATOR     = 

OBJECT_NAME    = COSMOS 2242
OBJECT_ID      = 1993-024A
CENTER_NAME    = EARTH
REF_FRAME      = TEME
TIME_SYSTEM    = UTC
MEAN_ELEMENT_THEORY = SGP/SGP4

EPOCH          = 2025-11-21T15:12:49.398912
MEAN_MOTION    = 14.95983508
ECCENTRICITY   = .0015136
INCLINATION    = 82.5203
RA_OF_ASC_NODE = 10.0162
ARG_OF_PERICENTER = 312.2631
MEAN_ANOMALY   = 47.7306

EPHEMERIS_TYPE = 0
CLASSIFICATION_TYPE = U
NORAD_CAT_ID   = 22626
ELEMENT_SET_NO = 999
REV_AT_EPOCH   = 76423
BSTAR          = .16271E-3
MEAN_MOTION_DOT = .1853E-4
MEAN_MOTION_DDOT = 0

CCSDS_OMM_VERS = 2.0
CREATION_DATE  = 
ORIGINATOR     = 

OBJECT_NAME    = SL-16 R/B
OBJECT_ID      = 1993-059B
CENTER_NAME    = EARTH
REF_FRAME      = TEME
TIME_SYSTEM    = UTC
MEAN_ELEMENT_THEORY = SGP/SGP4

EPOCH          = 2025-11-21T20:09:18.986976
MEAN_MOTION    = 14.17208672
ECCENTRICITY   = .0016721
INCLINATION    = 70.9901
RA_OF_ASC_NODE = 238.5562
ARG_OF_PERICENTER = 6.4632
MEAN_ANOMALY   = 353.6704

EPHEMERIS_TYPE = 0
CLASSIFICATION_TYPE = U
NORAD_CAT_ID   = 22803
ELEMENT_SET_NO = 999
REV_AT_EPOCH   = 66425
BSTAR          = -.55473E-4
MEAN_MOTION_DOT = -.16E-5
MEAN_MOTION_DDOT = 0

CCSDS_OMM_VERS = 2.0
CREATION_DATE  = 
ORIGINATOR     = 

OBJECT_NAME    = ARIANE 40 R/B
OBJECT_ID      = 1993-061H
CENTER_NAME    = EARTH
REF_FRAME      = TEME
TIME_SYSTEM    = UTC
MEAN_ELEMENT_THEORY = SGP/SGP4

EPOCH          = 2025-11-21T19:23:08.958912
MEAN_MOTION    = 14.32782140
ECCENTRICITY   = .0009799
INCLINATION    = 98.5102
RA_OF_ASC_NODE = 31.7163
ARG_OF_PERICENTER = 240.2418
MEAN_ANOMALY   = 119.7792

EPHEMERIS_TYPE = 0
CLASSIFICATION_TYPE = U
NORAD_CAT_ID   = 22830
ELEMENT_SET_NO = 999
REV_AT_EPOCH   = 67865
BSTAR          = .12012E-3
MEAN_MOTION_DOT = .284E-5
MEAN_MOTION_DDOT = 0

CCSDS_OMM_VERS = 2.0
CREATION_DATE  = 
ORIGINATOR     = 

OBJECT_NAME    = COSMOS 2278
OBJECT_ID      = 1994-023A
CENTER_NAME    = EARTH
REF_FRAME      = TEME
TIME_SYSTEM    = UTC
MEAN_ELEMENT_THEORY = SGP/SGP4

EPOCH          = 2025-11-21T16:07:40.584864
MEAN_MOTION    = 14.14346436
ECCENTRICITY   = .0009555
INCLINATION    = 71.0556
RA_OF_ASC_NODE = 41.0861
ARG_OF_PERICENTER = 207.2376
MEAN_ANOMALY   = 152.8247

EPHEMERIS_TYPE = 0
CLASSIFICATION_TYPE = U
NORAD_CAT_ID   = 23087
ELEMENT_SET_NO = 999
REV_AT_EPOCH   = 62953
BSTAR          = .19433E-3
MEAN_MOTION_DOT = .325E-5
MEAN_MOTION_DDOT = 0

CCSDS_OMM_VERS = 2.0
CREATION_DATE  = 
ORIGINATOR     = 

OBJECT_NAME    = SL-16 R/B
OBJECT_ID      = 1994-023B
CENTER_NAME    = EARTH
REF_FRAME      = TEME
TIME_SYSTEM    = UTC
MEAN_ELEMENT_THEORY = SGP/SGP4

EPOCH          = 2025-11-21T08:14:50.818272
MEAN_MOTION    = 14.14991256
ECCENTRICITY   = .0001155
INCLINATION    = 70.9988
RA_OF_ASC_NODE = 298.4184
ARG_OF_PERICENTER = 131.7649
MEAN_ANOMALY   = 228.3572

EPHEMERIS_TYPE = 0
CLASSIFICATION_TYPE = U
NORAD_CAT_ID   = 23088
ELEMENT_SET_NO = 999
REV_AT_EPOCH   = 63076
BSTAR          = -.87409E-6
MEAN_MOTION_DOT = -.49E-6
MEAN_MOTION_DDOT = 0

CCSDS_OMM_VERS = 2.0
CREATION_DATE  = 
ORIGINATOR     = 

OBJECT_NAME    = SL-16 R/B
OBJECT_ID      = 1994-074B
CENTER_NAME    = EARTH
REF_FRAME      = TEME
TIME_SYSTEM    = UTC
MEAN_ELEMENT_THEORY = SGP/SGP4

EPOCH          = 2025-11-21T17:11:31.553088
MEAN_MOTION    = 14.79254849
ECCENTRICITY   = .0005935
INCLINATION    = 97.7227
RA_OF_ASC_NODE = 355.8543
ARG_OF_PERICENTER = 201.2358
MEAN_ANOMALY   = 276.1421

EPHEMERIS_TYPE = 0
CLASSIFICATION_TYPE = U
NORAD_CAT_ID   = 23343
ELEMENT_SET_NO = 999
REV_AT_EPOCH   = 67128
BSTAR          = .7945E-4
MEAN_MOTION_DOT = .541E-5
MEAN_MOTION_DDOT = 0

CCSDS_OMM_VERS = 2.0
CREATION_DATE  = 
ORIGINATOR     = 

OBJECT_NAME    = SL-16 R/B
OBJECT_ID      = 1994-077B
CENTER_NAME    = EARTH
REF_FRAME      = TEME
TIME_SYSTEM    = UTC
MEAN_ELEMENT_THEORY = SGP/SGP4

EPOCH          = 2025-11-21T20:41:29.536224
MEAN_MOTION    = 14.15548049
ECCENTRICITY   = .0004471
INCLINATION    = 70.9827
RA_OF_ASC_NODE = 219.3332
ARG_OF_PERICENTER = 301.0402
MEAN_ANOMALY   = 59.0281

EPHEMERIS_TYPE = 0
CLASSIFICATION_TYPE = U
NORAD_CAT_ID   = 23405
ELEMENT_SET_NO = 999
REV_AT_EPOCH   = 60097
BSTAR          = -.33388E-4
MEAN_MOTION_DOT = -.113E-5
MEAN_MOTION_DDOT = 0

CCSDS_OMM_VERS = 2.0
CREATION_DATE  = 
ORIGINATOR     = 

OBJECT_NAME    = ARIANE 40+ R/B
OBJECT_ID      = 1995-021B
CENTER_NAME    = EARTH
REF_FRAME      = TEME
TIME_SYSTEM    = UTC
MEAN_ELEMENT_THEORY = SGP/SGP4

EPOCH          = 2025-11-21T19:50:37.493376
MEAN_MOTION    = 14.39672191
ECCENTRICITY   = .0007886
INCLINATION    = 98.4677
RA_OF_ASC_NODE = 33.6660
ARG_OF_PERICENTER = 104.2613
MEAN_ANOMALY   = 7.1541

EPHEMERIS_TYPE = 0
CLASSIFICATION_TYPE = U
NORAD_CAT_ID   = 23561
ELEMENT_SET_NO = 999
REV_AT_EPOCH   = 60372
BSTAR          = .13072E-3
MEAN_MOTION_DOT = .365E-5
MEAN_MOTION_DDOT = 0

CCSDS_OMM_VERS = 2.0
CREATION_DATE  = 
ORIGINATOR     = 

OBJECT_NAME    = SL-16 R/B
OBJECT_ID      = 1995-058B
CENTER_NAME    = EARTH
REF_FRAME      = TEME
TIME_SYSTEM    = UTC
MEAN_ELEMENT_THEORY = SGP/SGP4

EPOCH          = 2025-11-21T15:38:34.103904
MEAN_MOTION    = 14.15474999
ECCENTRICITY   = .0014966
INCLINATION    = 71.0226
RA_OF_ASC_NODE = 47.0774
ARG_OF_PERICENTER = 282.1476
MEAN_ANOMALY   = 77.7970

EPHEMERIS_TYPE = 0
CLASSIFICATION_TYPE = U
NORAD_CAT_ID   = 23705
ELEMENT_SET_NO = 999
REV_AT_EPOCH   = 55256
BSTAR          = -.71316E-4
MEAN_MOTION_DOT = -.187E-5
MEAN_MOTION_DDOT = 0

CCSDS_OMM_VERS = 2.0
CREATION_DATE  = 
ORIGINATOR     = 

OBJECT_NAME    = SL-16 R/B
OBJECT_ID      = 1996-051B
CENTER_NAME    = EARTH
REF_FRAME      = TEME
TIME_SYSTEM    = UTC
MEAN_ELEMENT_THEORY = SGP/SGP4

EPOCH          = 2025-11-21T16:00:19.284768
MEAN_MOTION    = 14.12393892
ECCENTRICITY   = .0018636
INCLINATION    = 70.7609
RA_OF_ASC_NODE = 43.8874
ARG_OF_PERICENTER = 287.6352
MEAN_ANOMALY   = 72.2733

EPHEMERIS_TYPE = 0
CLASSIFICATION_TYPE = U
NORAD_CAT_ID   = 24298
ELEMENT_SET_NO = 999
REV_AT_EPOCH   = 50639
BSTAR          = .14613E-4
MEAN_MOTION_DOT = -.22E-6
MEAN_MOTION_DDOT = 0

