COSMOS 2228             
1 22286U 92094A   25325.83078192  .00002068  00000+0  17898-3 0  9990
2 22286  82.5174 340.5410 0016654 308.5264  51.4465 14.96590327759929
SL-16 R/B               
1 22566U 93016B   25325.78443385  .00000242  00000+0  14849-3 0  9995
2 22566  71.0080  81.8128 0008542 136.6305 223.5491 14.15287102686906
COSMOS 2242             
1 22626U 93024A   25325.63390508  .00001853  00000+0  16271-3 0  9993
2 22626  82.5203  10.0162 0015136 312.2631  47.7306 14.95983508764235
SL-16 R/B               
1 22803U 93059B   25325.83980309 -.00000160  00000+0 -55473-4 0  9994
2 22803  70.9901 238.5562 0016721   6.4632 353.6704 14.17208672664251
ARIANE 40 R/B           
1 22830U 93061H   25325.80774258  .00000284  00000+0  12012-3 0  9994
2 22830  98.5102  31.7163 0009799 240.2418 119.7792 14.32782140678658
COSMOS 2278             
1 23087U 94023A   25325.67199751  .00000325  00000+0  19433-3 0  9992
2 23087  71.0556  41.0861 0009555 207.2376 152.8247 14.14346436629537
SL-16 R/B               
1 23088U 94023B   25325.34364373 -.00000049  00000+0 -87409-6 0  9997
2 23088  70.9988 298.4184 0001155 131.7649 228.3572 14.14991256630766
SL-16 R/B               
1 23343U 94074B   25325.71633742  .00000541  00000+0  79450-4 0  9997
2 23343  97.7227 355.8543 0005935 201.2358 276.1421 14.79254849671287
SL-16 R/B               
1 23405U 94077B   25325.86214741 -.00000113  00000+0 -33388-4 0  9996
2 23405  70.9827 219.3332 0004471 301.0402  59.0281 14.15548049600976
ARIANE 40+ R/B          
1 23561U 95021B   25325.82682284  .00000365  00000+0  13072-3 0  9990
2 23561  98.4677  33.6660 0007886 104.2613   7.1541 14.39672191603729
SL-16 R/B               
1 23705U 95058B   25325.65178361 -.00000187  00000+0 -71316-4 0  9997
2 23705  71.0226  47.0774 0014966 282.1476  77.7970 14.15474999552565
SL-16 R/B               
1 24298U 96051B   25325.66688987 -.00000022  00000+0  14613-4 0  9994
2 24298  70.7609  43.8874 0018636 287.6352  72.2733 14.12393892506396
